RADUGA 1 [-]            
1 08513U 75123A   22234.71230087  .00000012  00000+0  00000+0 0  9997
2 08513   6.3854 287.6501 0008460 214.6308 149.6641  1.00265526180834
RADUGA 2 [-]            
1 09416U 76092A   22234.74632927 -.00000090  00000+0  00000+0 0  9995
2 09416   7.0481 289.6309 0025541 357.7130  27.0982  1.00298718115362
RADUGA 3 [-]            
1 10159U 77071A   22235.11368861 -.00000325  00000+0  00000+0 0  9995
2 10159   7.6623 292.2108 0009898 231.8634 313.8672  1.00222271163071
RADUGA 4 [-]            
1 10987U 78073A   22235.24047281  .00000152  00000+0  00000+0 0  9998
2 10987   8.2857 295.7065 0007297 357.2223 163.1967  1.00281986105611
RADUGA 5 [-]            
1 11343U 79035A   22234.61299417 -.00000183  00000+0  00000+0 0  9999
2 11343   8.7457 298.4607 0007376 173.7318 164.8018  1.00267152115362
RADUGA 6 [-]            
1 11708U 80016A   22234.79840954  .00000042  00000+0  00000+0 0  9995
2 11708   9.1041 301.5158 0003727 197.2862 179.1174  1.00334943108186
RADUGA 7 [-]            
1 12003U 80081A   22234.14588484 -.00000203  00000+0  00000+0 0  9992
2 12003   9.2890 303.4648 0009954 255.8128 155.0294  1.00292500109434
RADUGA 8 [-]            
1 12351U 81027A   22233.67320885 -.00000277  00000+0  00000+0 0  9996
2 12351   9.6212 304.0627 0083190 228.5045 133.2346  1.00413091108542
RADUGA 9 [-]            
1 12618U 81069A   22234.80396667  .00000098  00000+0  00000+0 0  9995
2 12618   9.8368 306.9943 0005216 157.6026 207.1552  1.00337731 33361
RADUGA 10 [-]           
1 12897U 81102A   22234.70654134 -.00000163  00000+0  00000+0 0  9991
2 12897   9.9221 307.9686 0006870 178.0429 182.0193  1.00288520103355
RADUGA 11 [-]           
1 13669U 82113A   22234.61570025 -.00000170  00000+0  00000+0 0  9996
2 13669  11.9621 321.6381 0038029 253.0911 120.9989  0.97710071107912
RADUGA 12 [-]           
1 13974U 83028A   22233.86595278 -.00000004  00000+0  00000+0 0  9990
2 13974  11.0631 317.7134 0003950 133.9060 256.1490  1.00281368155392
RADUGA 13 [-]           
1 14307U 83088A   22234.46299229 -.00000023  00000+0  00000+0 0  9992
2 14307  12.2101 323.1870 0014904  49.0854   0.0001  0.98173189105256
RADUGA 14 [-]           
1 14725U 84016A   22234.78968219 -.00000198  00000+0  00000+0 0  9998
2 14725  11.2668 321.4548 0006449 143.3662 237.1479  1.00275047104127
RADUGA 15 [-]           
1 15057U 84063A   22234.61168904 -.00000352  00000+0  00000+0 0  9996
2 15057  11.3888 322.4464 0006875 158.0224 193.7824  1.00314610127114
RADUGA 16 [-]           
1 15946U 85070A   22234.54671740  .00000083  00000+0  00000+0 0  9991
2 15946  11.8487 327.1044 0003393 156.3673 232.3483  1.00283565108246
RADUGA 17 [-]           
1 16250U 85107A   22235.29062389 -.00000270  00000+0  00000+0 0  9996
2 16250  11.9705 328.4797 0015789 178.9624 220.1466  1.00142487137847
RADUGA 18 [-]           
1 16497U 86007A   22235.44071911  .00000031  00000+0  00000+0 0  9991
2 16497  12.7773 331.1863 0076638 165.4772 224.2600  0.98811563132141
RADUGA 19 [-]           
1 17046U 86082A   22234.55672278 -.00000132  00000+0  00000+0 0  9992
2 17046  13.2053 335.1190 0014936 148.3267 243.2760  0.98461444129185
RADUGA 20 [-]           
1 17611U 87028A   22234.41674265 -.00000080  00000+0  00000+0 0  9996
2 17611  15.2190 338.6435 0032105 137.4582 247.8326  0.95961049124933
RADUGA 21 [-]           
1 18631U 87100A   22234.48427906  .00000113  00000+0  00000+0 0  9991
2 18631  13.2922 335.9831 0004668 130.7542 242.4577  1.00285485127103
RADUGA 22 [-]           
1 19596U 88095A   22234.64146512 -.00000355  00000+0  00000+0 0  9994
2 19596  13.2739 340.2643 0008642 138.8892 211.6619  1.00230932107664
RADUGA 23 [-]           
1 19928U 89030A   22233.93174347  .00000125  00000+0  00000+0 0  9995
2 19928  13.4207 342.0879 0023272 161.0866 201.1430  1.00325043120861
RADUGA-1 1 [-]          
1 20083U 89048A   22233.81535764 -.00000019  00000+0  00000+0 0  9992
2 20083  14.1735 345.1459 0023705 115.7892 250.9434  0.98706798117490
RADUGA 24 [-]           
1 20367U 89098A   22233.74161277 -.00000010  00000+0  00000+0 0  9999
2 20367  13.9948 344.3530 0003114 132.9985 185.2277  1.00209407118973
RADUGA 25 [-]           
1 20499U 90016A   22234.22553331 -.00000294  00000+0  00000+0 0  9991
2 20499  13.7640 344.9989 0006889 140.6390 223.2506  1.00193348118927
RADUGA 26 [-]           
1 21016U 90112A   22234.61599700 -.00000013  00000+0  00000+0 0  9996
2 21016  14.0754 348.2515 0008476  97.1933 170.8377  1.00314837116275
RADUGA-1 2 [-]          
1 21038U 90116A   22231.63564747  .00000087  00000+0  00000+0 0  9996
2 21038  14.1156 348.3488 0009802 103.6149 153.9221  1.00264191 33323
RADUGA 27 [-]           
1 21132U 91014A   22234.98105198  .00000085  00000+0  00000+0 0  9999
2 21132  14.6232 347.8739 0005192 107.1445 247.0529  1.00277868115329
RADUGA 28 [-]           
1 21821U 91087A   22234.78729824 -.00000318  00000+0  00000+0 0  9990
2 21821  14.3885 351.5913 0009344 124.5647 239.9653  1.00204425112347
RADUGA 29 [-]           
1 22557U 93013A   22234.97549483  .00000125  00000+0  00000+0 0  9995
2 22557  14.5910 355.7689 0008068 115.7594 242.1085  1.00343290107710
RADUGA 30 [-]           
1 22836U 93062A   22234.38699972 -.00000116  00000+0  00000+0 0  9994
2 22836  14.6313 357.7419 0001771  64.3567 123.7302  1.00258769 32016
RADUGA-1 3 [-]          
1 22981U 94008A   22235.32427237 -.00000307  00000+0  00000+0 0  9996
2 22981  14.7086 358.8852 0005646 109.1112  78.9867  1.00249226104539
RADUGA 31 [-]           
1 23010U 94012A   22234.64468275  .00000037  00000+0  00000+0 0  9995
2 23010  14.6779 358.8885 0006932  98.6158 162.0410  1.00325665104360
RADUGA 32 [-]           
1 23448U 94087A   22234.38708692 -.00000122  00000+0  00000+0 0  9999
2 23448  14.6589   1.6005 0005071 182.9762   1.7717  1.00261228118898
RADUGA-1 4 [-]          
1 25642U 99010A   22234.69182174  .00000119  00000+0  00000+0 0  9998
2 25642  15.2187  13.1859 0001114 185.6535  58.1795  1.00297273 85966
RADUGA-1 5 [-]          
1 26477U 00049A   22234.62100439  .00000111  00000+0  00000+0 0  9998
2 26477  13.1641  18.0264 0006513  70.8413 149.1288  1.00275027 80435
RADUGA-1 6 [-]          
1 26936U 01045A   22234.56049219 -.00000075  00000+0  00000+0 0  9996
2 26936  13.3263  24.3385 0016596 158.9457 216.0133  0.97744112 74975
RADUGA-1 7 [-]          
1 28194U 04010A   22234.80674479 -.00000365  00000+0  00000+0 0  9990
2 28194  12.0437  31.1773 0002321 126.7094 230.8080  1.00245434 67436
RADUGA-1M 1 [-]         
1 32373U 07058A   22234.36860044 -.00000233  00000+0  00000+0 0  9999
2 32373   7.0370  63.6016 0004473  34.7878 348.7995  0.99400700 38537
RADUGA-1 8 [-]          
1 34264U 09010A   22235.23218878 -.00000122  00000+0  00000+0 0  9996
2 34264   9.3542  53.5911 0014568   6.8799 351.2201  0.99830923 49258
RADUGA-1M 2 [+]         
1 36358U 10002A   22234.56577031 -.00000187  00000+0  00000+0 0  9990
2 36358   0.0280 150.1323 0000441 350.2751 119.1593  1.00262025 36101
RADUGA-1M 3 [+]         
1 39375U 13062A   22234.90327108  .00000149  00000+0  00000+0 0  9994
2 39375   2.3955  89.0179 0002441 159.1538  83.1724  1.00273769 32140
